{"type": "FeatureCollection", "features": [{"type": "Feature", "properties": {"norad_id": 66412, "name": "HULIANWANG DIGUI 13A", "group": "last-30-days", "lat": 32.69880989417848, "lon": -56.39869444189955, "alt_km": 819.1560245348601, "timestamp": "2025-12-10T14:53:35.945240+00:00", "meta": {"OBJECT_NAME": "HULIANWANG DIGUI 13A", "OBJECT_ID": "2025-258A", "EPOCH": "2025-12-09T03:12:44.519040", "MEAN_MOTION": 14.19925548, "ECCENTRICITY": 0.00045892, "INCLINATION": 50.0057, "RA_OF_ASC_NODE": 277.2127, "ARG_OF_PERICENTER": 347.8692, "MEAN_ANOMALY": 12.2108, "EPHEMERIS_TYPE": 0, "CLASSIFICATION_TYPE": "U", "NORAD_CAT_ID": 66412, "ELEMENT_SET_NO": 999, "REV_AT_EPOCH": 414, "BSTAR": 0.00032047821, "MEAN_MOTION_DOT": 5.27e-06, "MEAN_MOTION_DDOT": 0}, "tle": {"line1": "1 66412U 25258A   25343.13384860  .00000527  00000+0  32048-3 0  9994", "line2": "2 66412  50.0057 277.2127 0004589 347.8692  12.2108 14.19925548  4142"}}, "geometry": {"type": "Point", "coordinates": [-56.39869444189955, 32.69880989417848]}}, {"type": "Feature", "properties": {"norad_id": 66413, "name": "HULIANWANG DIGUI 13B", "group": "last-30-days", "lat": -6.813433029611746, "lon": -94.6690413980697, "alt_km": 825.5198265423514, "timestamp": "2025-12-10T14:53:35.945294+00:00", "meta": {"OBJECT_NAME": "HULIANWANG DIGUI 13B", "OBJECT_ID": "2025-258B", "EPOCH": "2025-12-09T08:30:42.060672", "MEAN_MOTION": 14.18998764, "ECCENTRICITY": 0.00064107, "INCLINATION": 50.0063, "RA_OF_ASC_NODE": 276.3756, "ARG_OF_PERICENTER": 353.6698, "MEAN_ANOMALY": 6.4131, "EPHEMERIS_TYPE": 0, "CLASSIFICATION_TYPE": "U", "NORAD_CAT_ID": 66413, "ELEMENT_SET_NO": 999, "REV_AT_EPOCH": 417, "BSTAR": 0.00044989424, "MEAN_MOTION_DOT": 7.88e-06, "MEAN_MOTION_DDOT": 0}, "tle": {"line1": "1 66413U 25258B   25343.35465348  .00000788  00000+0  44989-3 0  9996", "line2": "2 66413  50.0063 276.3756 0006410 353.6698   6.4131 14.18998764  4177"}}, "geometry": {"type": "Point", "coordinates": [-94.6690413980697, -6.813433029611746]}}, {"type": "Feature", "properties": {"norad_id": 66414, "name": "HULIANWANG DIGUI 13C", "group": "last-30-days", "lat": 8.456413192006485, "lon": -81.76921748371666, "alt_km": 824.149376444464, "timestamp": "2025-12-10T14:53:35.945309+00:00", "meta": {"OBJECT_NAME": "HULIANWANG DIGUI 13C", "OBJECT_ID": "2025-258C", "EPOCH": "2025-12-09T03:21:13.066848", "MEAN_MOTION": 14.19246085, "ECCENTRICITY": 0.00047063, "INCLINATION": 50.0081, "RA_OF_ASC_NODE": 277.2503, "ARG_OF_PERICENTER": 342.5024, "MEAN_ANOMALY": 17.5724, "EPHEMERIS_TYPE": 0, "CLASSIFICATION_TYPE": "U", "NORAD_CAT_ID": 66414, "ELEMENT_SET_NO": 999, "REV_AT_EPOCH": 414, "BSTAR": 0.00041183983, "MEAN_MOTION_DOT": 7.11e-06, "MEAN_MOTION_DDOT": 0}, "tle": {"line1": "1 66414U 25258C   25343.13973457  .00000711  00000+0  41184-3 0  9998", "line2": "2 66414  50.0081 277.2503 0004706 342.5024  17.5724 14.19246085  4145"}}, "geometry": {"type": "Point", "coordinates": [-81.76921748371666, 8.456413192006485]}}, {"type": "Feature", "properties": {"norad_id": 66415, "name": "HULIANWANG DIGUI 13D", "group": "last-30-days", "lat": 39.471098063108606, "lon": -45.30217176004927, "alt_km": 817.3167571947324, "timestamp": "2025-12-10T14:53:35.945321+00:00", "meta": {"OBJECT_NAME": "HULIANWANG DIGUI 13D", "OBJECT_ID": "2025-258D", "EPOCH": "2025-12-09T03:09:52.475040", "MEAN_MOTION": 14.20116062, "ECCENTRICITY": 0.00047716, "INCLINATION": 50.0116, "RA_OF_ASC_NODE": 277.2068, "ARG_OF_PERICENTER": 0.2986, "MEAN_ANOMALY": 359.7928, "EPHEMERIS_TYPE": 0, "CLASSIFICATION_TYPE": "U", "NORAD_CAT_ID": 66415, "ELEMENT_SET_NO": 999, "REV_AT_EPOCH": 414, "BSTAR": 0.00038203452, "MEAN_MOTION_DOT": 6.62e-06, "MEAN_MOTION_DDOT": 0}, "tle": {"line1": "1 66415U 25258D   25343.13185735  .00000662  00000+0  38203-3 0  9996", "line2": "2 66415  50.0116 277.2068 0004771   0.2986 359.7928 14.20116062  4148"}}, "geometry": {"type": "Point", "coordinates": [-45.30217176004927, 39.471098063108606]}}, {"type": "Feature", "properties": {"norad_id": 66416, "name": "HULIANWANG DIGUI 13E", "group": "last-30-days", "lat": 17.018909678210324, "lon": -74.07421438048179, "alt_km": 823.2468480785274, "timestamp": "2025-12-10T14:53:35.945332+00:00", "meta": {"OBJECT_NAME": "HULIANWANG DIGUI 13E", "OBJECT_ID": "2025-258E", "EPOCH": "2025-12-09T08:22:19.522848", "MEAN_MOTION": 14.19348736, "ECCENTRICITY": 0.00039271, "INCLINATION": 50.0045, "RA_OF_ASC_NODE": 276.3517, "ARG_OF_PERICENTER": 345.3839, "MEAN_ANOMALY": 14.6958, "EPHEMERIS_TYPE": 0, "CLASSIFICATION_TYPE": "U", "NORAD_CAT_ID": 66416, "ELEMENT_SET_NO": 999, "REV_AT_EPOCH": 417, "BSTAR": 0.00047173942, "MEAN_MOTION_DOT": 8.4e-06, "MEAN_MOTION_DDOT": 0}, "tle": {"line1": "1 66416U 25258E   25343.34883707  .00000840  00000+0  47174-3 0  9999", "line2": "2 66416  50.0045 276.3517 0003927 345.3839  14.6958 14.19348736  4177"}}, "geometry": {"type": "Point", "coordinates": [-74.07421438048179, 17.018909678210324]}}, {"type": "Feature", "properties": {"norad_id": 66417, "name": "HULIANWANG DIGUI 13F", "group": "last-30-days", "lat": 24.741745963276745, "lon": -66.23993397296904, "alt_km": 822.2914066054009, "timestamp": "2025-12-10T14:53:35.945342+00:00", "meta": {"OBJECT_NAME": "HULIANWANG DIGUI 13F", "OBJECT_ID": "2025-258F", "EPOCH": "2025-12-09T08:19:34.689792", "MEAN_MOTION": 14.1954336, "ECCENTRICITY": 0.0003281, "INCLINATION": 49.9994, "RA_OF_ASC_NODE": 276.3221, "ARG_OF_PERICENTER": 337.0094, "MEAN_ANOMALY": 23.067, "EPHEMERIS_TYPE": 0, "CLASSIFICATION_TYPE": "U", "NORAD_CAT_ID": 66417, "ELEMENT_SET_NO": 999, "REV_AT_EPOCH": 417, "BSTAR": 0.0004116435, "MEAN_MOTION_DOT": 7.16e-06, "MEAN_MOTION_DDOT": 0}, "tle": {"line1": "1 66417U 25258F   25343.34692928  .00000716  00000+0  41164-3 0  9998", "line2": "2 66417  49.9994 276.3221 0003281 337.0094  23.0670 14.19543360  4179"}}, "geometry": {"type": "Point", "coordinates": [-66.23993397296904, 24.741745963276745]}}, {"type": "Feature", "properties": {"norad_id": 66418, "name": "HULIANWANG DIGUI 13G", "group": "last-30-days", "lat": 43.66778985010006, "lon": -35.79672976593201, "alt_km": 817.8043152350283, "timestamp": "2025-12-10T14:53:35.945353+00:00", "meta": {"OBJECT_NAME": "HULIANWANG DIGUI 13G", "OBJECT_ID": "2025-258G", "EPOCH": "2025-12-09T09:52:43.669056", "MEAN_MOTION": 14.19995679, "ECCENTRICITY": 0.00047642, "INCLINATION": 50.0018, "RA_OF_ASC_NODE": 275.9967, "ARG_OF_PERICENTER": 355.5056, "MEAN_ANOMALY": 4.5812, "EPHEMERIS_TYPE": 0, "CLASSIFICATION_TYPE": "U", "NORAD_CAT_ID": 66418, "ELEMENT_SET_NO": 999, "REV_AT_EPOCH": 418, "BSTAR": 0.00034781431, "MEAN_MOTION_DOT": 5.87e-06, "MEAN_MOTION_DDOT": 0}, "tle": {"line1": "1 66418U 25258G   25343.41161654  .00000587  00000+0  34781-3 0  9997", "line2": "2 66418  50.0018 275.9967 0004764 355.5056   4.5812 14.19995679  4189"}}, "geometry": {"type": "Point", "coordinates": [-35.79672976593201, 43.66778985010006]}}, {"type": "Feature", "properties": {"norad_id": 66419, "name": "HULIANWANG DIGUI 13H", "group": "last-30-days", "lat": -52.743151062691496, "lon": 36.24605331268446, "alt_km": 451.78883371299617, "timestamp": "2025-12-10T14:53:35.945363+00:00", "meta": {"OBJECT_NAME": "HULIANWANG DIGUI 13H", "OBJECT_ID": "2025-258H", "EPOCH": "2025-12-08T14:58:00.814656", "MEAN_MOTION": 15.39596954, "ECCENTRICITY": 0.00012505, "INCLINATION": 53.1596, "RA_OF_ASC_NODE": 125.9585, "ARG_OF_PERICENTER": 98.9072, "MEAN_ANOMALY": 261.2074, "EPHEMERIS_TYPE": 0, "CLASSIFICATION_TYPE": "U", "NORAD_CAT_ID": 66419, "ELEMENT_SET_NO": 999, "REV_AT_EPOCH": 804, "BSTAR": 0.0024249346, "MEAN_MOTION_DOT": 0.00097774, "MEAN_MOTION_DDOT": 0}, "tle": {"line1": "1 66419U 25258H   25342.62362054  .00097774  00000+0  24249-2 0  9998", "line2": "2 66419  53.1596 125.9585 0001250  98.9072 261.2074 15.39596954  8045"}}, "geometry": {"type": "Point", "coordinates": [36.24605331268446, -52.743151062691496]}}, {"type": "Feature", "properties": {"norad_id": 66420, "name": "HULIANWANG DIGUI 13J", "group": "last-30-days", "lat": 49.591005410724904, "lon": -8.613625952997666, "alt_km": 817.4099816001026, "timestamp": "2025-12-10T14:53:35.945375+00:00", "meta": {"OBJECT_NAME": "HULIANWANG DIGUI 13J", "OBJECT_ID": "2025-258J", "EPOCH": "2025-12-09T08:06:16.030656", "MEAN_MOTION": 14.20271341, "ECCENTRICITY": 0.00028332, "INCLINATION": 50.0013, "RA_OF_ASC_NODE": 276.2845, "ARG_OF_PERICENTER": 351.7519, "MEAN_ANOMALY": 8.3346, "EPHEMERIS_TYPE": 0, "CLASSIFICATION_TYPE": "U", "NORAD_CAT_ID": 66420, "ELEMENT_SET_NO": 999, "REV_AT_EPOCH": 416, "BSTAR": 0.00032523297, "MEAN_MOTION_DOT": 5.42e-06, "MEAN_MOTION_DDOT": 0}, "tle": {"line1": "1 66420U 25258J   25343.33768554  .00000542  00000+0  32523-3 0  9996", "line2": "2 66420  50.0013 276.2845 0002833 351.7519   8.3346 14.20271341  4160"}}, "geometry": {"type": "Point", "coordinates": [-8.613625952997666, 49.591005410724904]}}, {"type": "Feature", "properties": {"norad_id": 66421, "name": "CZ-12 R/B", "group": "last-30-days", "lat": -46.41834797219509, "lon": 149.07678931083368, "alt_km": 709.7485766385817, "timestamp": "2025-12-10T14:53:35.945385+00:00", "meta": {"OBJECT_NAME": "CZ-12 R/B", "OBJECT_ID": "2025-258K", "EPOCH": "2025-12-09T19:26:26.382912", "MEAN_MOTION": 14.42322931, "ECCENTRICITY": 0.00645439, "INCLINATION": 49.9957, "RA_OF_ASC_NODE": 270.6602, "ARG_OF_PERICENTER": 238.862, "MEAN_ANOMALY": 120.596, "EPHEMERIS_TYPE": 0, "CLASSIFICATION_TYPE": "U", "NORAD_CAT_ID": 66421, "ELEMENT_SET_NO": 999, "REV_AT_EPOCH": 430, "BSTAR": 0.00014504035, "MEAN_MOTION_DOT": 3.24e-06, "MEAN_MOTION_DDOT": 0}, "tle": {"line1": "1 66421U 25258K   25343.81002758  .00000324  00000+0  14504-3 0  9994", "line2": "2 66421  49.9957 270.6602 0064543 238.8620 120.5960 14.42322931  4309"}}, "geometry": {"type": "Point", "coordinates": [149.07678931083368, -46.41834797219509]}}]}